{
  "type": "FeatureCollection",
  "features": [
    {
      "type": "Feature",
      "properties": {
        "norad_id": 64903,
        "name": "CO3D 1",
        "group": "resource",
        "lat": -63.631926465530796,
        "lon": -120.02056246234172,
        "alt_km": 513.0869244411624,
        "timestamp": "2025-12-25T03:55:55.964412+00:00",
        "meta_object_name": "CO3D 1",
        "meta_object_id": "2025-156E",
        "meta_epoch": "2025-12-24T20:32:25.950624",
        "meta_mean_motion": 15.20191596,
        "meta_eccentricity": 8.79e-05,
        "meta_inclination": 97.4339,
        "meta_ra_of_asc_node": 74.9478,
        "meta_arg_of_pericenter": 69.3834,
        "meta_mean_anomaly": 290.7495,
        "meta_ephemeris_type": 0,
        "meta_classification_type": "U",
        "meta_norad_cat_id": 64903,
        "meta_element_set_no": 999,
        "meta_rev_at_epoch": 2304,
        "meta_bstar": 0.00028026,
        "meta_mean_motion_dot": 6.002e-05,
        "meta_mean_motion_ddot": 0,
        "tle_line1": "1 64903U 25156E   25358.85585591  .00006002  00000+0  28026-3 0  9998",
        "tle_line2": "2 64903  97.4339  74.9478 0000879  69.3834 290.7495 15.20191596 23049"
      },
      "geometry": {
        "type": "Point",
        "coordinates": [
          -120.02056246234172,
          -63.631926465530796
        ]
      }
    },
    {
      "type": "Feature",
      "properties": {
        "norad_id": 66514,
        "name": "SENTINEL-6B",
        "group": "resource",
        "lat": 32.68722557025096,
        "lon": -59.94863183324055,
        "alt_km": 1338.3584678233856,
        "timestamp": "2025-12-25T03:55:55.964422+00:00",
        "meta_object_name": "SENTINEL-6B",
        "meta_object_id": "2025-264A",
        "meta_epoch": "2025-12-24T15:56:27.686976",
        "meta_mean_motion": 12.80929573,
        "meta_eccentricity": 0.0007898,
        "meta_inclination": 66.0398,
        "meta_ra_of_asc_node": 137.6666,
        "meta_arg_of_pericenter": 269.9777,
        "meta_mean_anomaly": 90.0333,
        "meta_ephemeris_type": 0,
        "meta_classification_type": "U",
        "meta_norad_cat_id": 66514,
        "meta_element_set_no": 999,
        "meta_rev_at_epoch": 481,
        "meta_bstar": 6.3146e-05,
        "meta_mean_motion_dot": -4.6e-07,
        "meta_mean_motion_ddot": 0,
        "tle_line1": "1 66514U 25264A   25358.66420934 -.00000046  00000+0  63146-4 0  9992",
        "tle_line2": "2 66514  66.0398 137.6666 0007898 269.9777  90.0333 12.80929573  4817"
      },
      "geometry": {
        "type": "Point",
        "coordinates": [
          -59.94863183324055,
          32.68722557025096
        ]
      }
    }
  ]
}